[{"OBJECT_NAME":"JILIN-1 GAOFEN 3I","OBJECT_ID":"2020-065H","EPOCH":"2026-03-09T21:52:33.609504","MEAN_MOTION":15.70055987,"ECCENTRICITY":0.00105914,"INCLINATION":97.2419,"RA_OF_ASC_NODE":125.8258,"ARG_OF_PERICENTER":92.4806,"MEAN_ANOMALY":267.767,"EPHEMERIS_TYPE":0,"CLASSIFICATION_TYPE":"U","NORAD_CAT_ID":46461,"ELEMENT_SET_NO":999,"REV_AT_EPOCH":30463,"BSTAR":0.00089589772,"MEAN_MOTION_DOT":0.00109158,"MEAN_MOTION_DDOT":0},{"OBJECT_NAME":"STARLINK-11075 [DTC]","OBJECT_ID":"2024-002B","EPOCH":"2026-03-09T17:37:29.615520","MEAN_MOTION":15.69703246,"ECCENTRICITY":0.00010441,"INCLINATION":53.1578,"RA_OF_ASC_NODE":273.858,"ARG_OF_PERICENTER":96.0954,"MEAN_ANOMALY":264.0182,"EPHEMERIS_TYPE":0,"CLASSIFICATION_TYPE":"U","NORAD_CAT_ID":58706,"ELEMENT_SET_NO":999,"REV_AT_EPOCH":12644,"BSTAR":5.6831528e-5,"MEAN_MOTION_DOT":6.3e-5,"MEAN_MOTION_DDOT":0}]
